ORBCOMM FM20            
1 25416U 98046D   24242.39063801  .00002770  00000+0  99880-3 0  9991
2 25416  44.9937 121.7540 0000359   7.8787 352.2066 14.35689332362302
ORBCOMM FM16            
1 25417U 98046E   24242.89350777  .00004284  00000+0  14830-2 0  9991
2 25417  44.9933 114.2443 0003272 274.2323  85.8151 14.36843093362324
ORBCOMM FM15            
1 25418U 98046F   24242.38561031  .00003721  00000+0  13024-2 0  9992
2 25418  44.9965 120.9800 0002977 277.9921  82.0589 14.36538588362252
ORBCOMM FM14            
1 25419U 98046G   24242.39529974  .00003983  00000+0  13847-2 0  9997
2 25419  44.9956 119.8749 0001717 264.4440  95.6211 14.36760038362215
ORBCOMM FM13            
1 25420U 98046H   24241.94385442  .00003352  00000+0  11925-2 0  9994
2 25420  44.9970 127.5463 0004040 254.1769 105.8633 14.35927320361202
ORBCOMM FM21            
1 25475U 98053A   24242.18029644  .00003445  00000+0  12277-2 0  9992
2 25475  45.0066 210.9285 0001911 291.1493  68.9151 14.35797935355257
ORBCOMM FM22            
1 25476U 98053B   24242.53111048  .00004333  00000+0  15123-2 0  9992
2 25476  45.0060 206.0652 0002100 248.0799 111.9825 14.36423006355665
ORBCOMM FM23            
1 25477U 98053C   24242.62241255  .00003585  00000+0  12744-2 0  9991
2 25477  45.0067 211.2273 0001918 263.2583  96.8046 14.35842412355465
