<?xml version="1.0" encoding="UTF-8"?>
<ndm xmlns:xsi="http://www.w3.org/2001/XMLSchema-instance" xsi:noNamespaceSchemaLocation="https://sanaregistry.org/r/ndmxml_unqualified/ndmxml-2.0.0-master-2.0.xsd">
<omm id="CCSDS_OMM_VERS" version="2.0">
<header><CREATION_DATE/><ORIGINATOR/></header><body><segment><metadata><OBJECT_NAME>ORBCOMM FM20</OBJECT_NAME><OBJECT_ID>1998-046D</OBJECT_ID><CENTER_NAME>EARTH</CENTER_NAME><REF_FRAME>TEME</REF_FRAME><TIME_SYSTEM>UTC</TIME_SYSTEM><MEAN_ELEMENT_THEORY>SGP4</MEAN_ELEMENT_THEORY></metadata><data><meanElements><EPOCH>2024-08-29T09:22:31.124064</EPOCH><MEAN_MOTION>14.35689332</MEAN_MOTION><ECCENTRICITY>.0000359</ECCENTRICITY><INCLINATION>44.9937</INCLINATION><RA_OF_ASC_NODE>121.7540</RA_OF_ASC_NODE><ARG_OF_PERICENTER>7.8787</ARG_OF_PERICENTER><MEAN_ANOMALY>352.2066</MEAN_ANOMALY></meanElements><tleParameters><EPHEMERIS_TYPE>0</EPHEMERIS_TYPE><CLASSIFICATION_TYPE>U</CLASSIFICATION_TYPE><NORAD_CAT_ID>25416</NORAD_CAT_ID><ELEMENT_SET_NO>999</ELEMENT_SET_NO><REV_AT_EPOCH>36230</REV_AT_EPOCH><BSTAR>.9988E-3</BSTAR><MEAN_MOTION_DOT>.277E-4</MEAN_MOTION_DOT><MEAN_MOTION_DDOT>0</MEAN_MOTION_DDOT></tleParameters></data></segment></body></omm>
<omm id="CCSDS_OMM_VERS" version="2.0">
<header><CREATION_DATE/><ORIGINATOR/></header><body><segment><metadata><OBJECT_NAME>ORBCOMM FM16</OBJECT_NAME><OBJECT_ID>1998-046E</OBJECT_ID><CENTER_NAME>EARTH</CENTER_NAME><REF_FRAME>TEME</REF_FRAME><TIME_SYSTEM>UTC</TIME_SYSTEM><MEAN_ELEMENT_THEORY>SGP4</MEAN_ELEMENT_THEORY></metadata><data><meanElements><EPOCH>2024-08-29T21:26:39.071328</EPOCH><MEAN_MOTION>14.36843093</MEAN_MOTION><ECCENTRICITY>.0003272</ECCENTRICITY><INCLINATION>44.9933</INCLINATION><RA_OF_ASC_NODE>114.2443</RA_OF_ASC_NODE><ARG_OF_PERICENTER>274.2323</ARG_OF_PERICENTER><MEAN_ANOMALY>85.8151</MEAN_ANOMALY></meanElements><tleParameters><EPHEMERIS_TYPE>0</EPHEMERIS_TYPE><CLASSIFICATION_TYPE>U</CLASSIFICATION_TYPE><NORAD_CAT_ID>25417</NORAD_CAT_ID><ELEMENT_SET_NO>999</ELEMENT_SET_NO><REV_AT_EPOCH>36232</REV_AT_EPOCH><BSTAR>.1483E-2</BSTAR><MEAN_MOTION_DOT>.4284E-4</MEAN_MOTION_DOT><MEAN_MOTION_DDOT>0</MEAN_MOTION_DDOT></tleParameters></data></segment></body></omm>
<omm id="CCSDS_OMM_VERS" version="2.0">
<header><CREATION_DATE/><ORIGINATOR/></header><body><segment><metadata><OBJECT_NAME>ORBCOMM FM15</OBJECT_NAME><OBJECT_ID>1998-046F</OBJECT_ID><CENTER_NAME>EARTH</CENTER_NAME><REF_FRAME>TEME</REF_FRAME><TIME_SYSTEM>UTC</TIME_SYSTEM><MEAN_ELEMENT_THEORY>SGP4</MEAN_ELEMENT_THEORY></metadata><data><meanElements><EPOCH>2024-08-29T09:15:16.730784</EPOCH><MEAN_MOTION>14.36538588</MEAN_MOTION><ECCENTRICITY>.0002977</ECCENTRICITY><INCLINATION>44.9965</INCLINATION><RA_OF_ASC_NODE>120.9800</RA_OF_ASC_NODE><ARG_OF_PERICENTER>277.9921</ARG_OF_PERICENTER><MEAN_ANOMALY>82.0589</MEAN_ANOMALY></meanElements><tleParameters><EPHEMERIS_TYPE>0</EPHEMERIS_TYPE><CLASSIFICATION_TYPE>U</CLASSIFICATION_TYPE><NORAD_CAT_ID>25418</NORAD_CAT_ID><ELEMENT_SET_NO>999</ELEMENT_SET_NO><REV_AT_EPOCH>36225</REV_AT_EPOCH><BSTAR>.13024E-2</BSTAR><MEAN_MOTION_DOT>.3721E-4</MEAN_MOTION_DOT><MEAN_MOTION_DDOT>0</MEAN_MOTION_DDOT></tleParameters></data></segment></body></omm>
<omm id="CCSDS_OMM_VERS" version="2.0">
<header><CREATION_DATE/><ORIGINATOR/></header><body><segment><metadata><OBJECT_NAME>ORBCOMM FM14</OBJECT_NAME><OBJECT_ID>1998-046G</OBJECT_ID><CENTER_NAME>EARTH</CENTER_NAME><REF_FRAME>TEME</REF_FRAME><TIME_SYSTEM>UTC</TIME_SYSTEM><MEAN_ELEMENT_THEORY>SGP4</MEAN_ELEMENT_THEORY></metadata><data><meanElements><EPOCH>2024-08-29T09:29:13.897536</EPOCH><MEAN_MOTION>14.36760038</MEAN_MOTION><ECCENTRICITY>.0001717</ECCENTRICITY><INCLINATION>44.9956</INCLINATION><RA_OF_ASC_NODE>119.8749</RA_OF_ASC_NODE><ARG_OF_PERICENTER>264.4440</ARG_OF_PERICENTER><MEAN_ANOMALY>95.6211</MEAN_ANOMALY></meanElements><tleParameters><EPHEMERIS_TYPE>0</EPHEMERIS_TYPE><CLASSIFICATION_TYPE>U</CLASSIFICATION_TYPE><NORAD_CAT_ID>25419</NORAD_CAT_ID><ELEMENT_SET_NO>999</ELEMENT_SET_NO><REV_AT_EPOCH>36221</REV_AT_EPOCH><BSTAR>.13847E-2</BSTAR><MEAN_MOTION_DOT>.3983E-4</MEAN_MOTION_DOT><MEAN_MOTION_DDOT>0</MEAN_MOTION_DDOT></tleParameters></data></segment></body></omm>
<omm id="CCSDS_OMM_VERS" version="2.0">
<header><CREATION_DATE/><ORIGINATOR/></header><body><segment><metadata><OBJECT_NAME>ORBCOMM FM13</OBJECT_NAME><OBJECT_ID>1998-046H</OBJECT_ID><CENTER_NAME>EARTH</CENTER_NAME><REF_FRAME>TEME</REF_FRAME><TIME_SYSTEM>UTC</TIME_SYSTEM><MEAN_ELEMENT_THEORY>SGP4</MEAN_ELEMENT_THEORY></metadata><data><meanElements><EPOCH>2024-08-28T22:39:09.021888</EPOCH><MEAN_MOTION>14.35927320</MEAN_MOTION><ECCENTRICITY>.000404</ECCENTRICITY><INCLINATION>44.9970</INCLINATION><RA_OF_ASC_NODE>127.5463</RA_OF_ASC_NODE><ARG_OF_PERICENTER>254.1769</ARG_OF_PERICENTER><MEAN_ANOMALY>105.8633</MEAN_ANOMALY></meanElements><tleParameters><EPHEMERIS_TYPE>0</EPHEMERIS_TYPE><CLASSIFICATION_TYPE>U</CLASSIFICATION_TYPE><NORAD_CAT_ID>25420</NORAD_CAT_ID><ELEMENT_SET_NO>999</ELEMENT_SET_NO><REV_AT_EPOCH>36120</REV_AT_EPOCH><BSTAR>.11925E-2</BSTAR><MEAN_MOTION_DOT>.3352E-4</MEAN_MOTION_DOT><MEAN_MOTION_DDOT>0</MEAN_MOTION_DDOT></tleParameters></data></segment></body></omm>
<omm id="CCSDS_OMM_VERS" version="2.0">
<header><CREATION_DATE/><ORIGINATOR/></header><body><segment><metadata><OBJECT_NAME>ORBCOMM FM21</OBJECT_NAME><OBJECT_ID>1998-053A</OBJECT_ID><CENTER_NAME>EARTH</CENTER_NAME><REF_FRAME>TEME</REF_FRAME><TIME_SYSTEM>UTC</TIME_SYSTEM><MEAN_ELEMENT_THEORY>SGP4</MEAN_ELEMENT_THEORY></metadata><data><meanElements><EPOCH>2024-08-29T04:19:37.612416</EPOCH><MEAN_MOTION>14.35797935</MEAN_MOTION><ECCENTRICITY>.0001911</ECCENTRICITY><INCLINATION>45.0066</INCLINATION><RA_OF_ASC_NODE>210.9285</RA_OF_ASC_NODE><ARG_OF_PERICENTER>291.1493</ARG_OF_PERICENTER><MEAN_ANOMALY>68.9151</MEAN_ANOMALY></meanElements><tleParameters><EPHEMERIS_TYPE>0</EPHEMERIS_TYPE><CLASSIFICATION_TYPE>U</CLASSIFICATION_TYPE><NORAD_CAT_ID>25475</NORAD_CAT_ID><ELEMENT_SET_NO>999</ELEMENT_SET_NO><REV_AT_EPOCH>35525</REV_AT_EPOCH><BSTAR>.12277E-2</BSTAR><MEAN_MOTION_DOT>.3445E-4</MEAN_MOTION_DOT><MEAN_MOTION_DDOT>0</MEAN_MOTION_DDOT></tleParameters></data></segment></body></omm>
<omm id="CCSDS_OMM_VERS" version="2.0">
<header><CREATION_DATE/><ORIGINATOR/></header><body><segment><metadata><OBJECT_NAME>ORBCOMM FM22</OBJECT_NAME><OBJECT_ID>1998-053B</OBJECT_ID><CENTER_NAME>EARTH</CENTER_NAME><REF_FRAME>TEME</REF_FRAME><TIME_SYSTEM>UTC</TIME_SYSTEM><MEAN_ELEMENT_THEORY>SGP4</MEAN_ELEMENT_THEORY></metadata><data><meanElements><EPOCH>2024-08-29T12:44:47.945472</EPOCH><MEAN_MOTION>14.36423006</MEAN_MOTION><ECCENTRICITY>.00021</ECCENTRICITY><INCLINATION>45.0060</INCLINATION><RA_OF_ASC_NODE>206.0652</RA_OF_ASC_NODE><ARG_OF_PERICENTER>248.0799</ARG_OF_PERICENTER><MEAN_ANOMALY>111.9825</MEAN_ANOMALY></meanElements><tleParameters><EPHEMERIS_TYPE>0</EPHEMERIS_TYPE><CLASSIFICATION_TYPE>U</CLASSIFICATION_TYPE><NORAD_CAT_ID>25476</NORAD_CAT_ID><ELEMENT_SET_NO>999</ELEMENT_SET_NO><REV_AT_EPOCH>35566</REV_AT_EPOCH><BSTAR>.15123E-2</BSTAR><MEAN_MOTION_DOT>.4333E-4</MEAN_MOTION_DOT><MEAN_MOTION_DDOT>0</MEAN_MOTION_DDOT></tleParameters></data></segment></body></omm>
<omm id="CCSDS_OMM_VERS" version="2.0">
<header><CREATION_DATE/><ORIGINATOR/></header><body><segment><metadata><OBJECT_NAME>ORBCOMM FM23</OBJECT_NAME><OBJECT_ID>1998-053C</OBJECT_ID><CENTER_NAME>EARTH</CENTER_NAME><REF_FRAME>TEME</REF_FRAME><TIME_SYSTEM>UTC</TIME_SYSTEM><MEAN_ELEMENT_THEORY>SGP4</MEAN_ELEMENT_THEORY></metadata><data><meanElements><EPOCH>2024-08-29T14:56:16.444320</EPOCH><MEAN_MOTION>14.35842412</MEAN_MOTION><ECCENTRICITY>.0001918</ECCENTRICITY><INCLINATION>45.0067</INCLINATION><RA_OF_ASC_NODE>211.2273</RA_OF_ASC_NODE><ARG_OF_PERICENTER>263.2583</ARG_OF_PERICENTER><MEAN_ANOMALY>96.8046</MEAN_ANOMALY></meanElements><tleParameters><EPHEMERIS_TYPE>0</EPHEMERIS_TYPE><CLASSIFICATION_TYPE>U</CLASSIFICATION_TYPE><NORAD_CAT_ID>25477</NORAD_CAT_ID><ELEMENT_SET_NO>999</ELEMENT_SET_NO><REV_AT_EPOCH>35546</REV_AT_EPOCH><BSTAR>.12744E-2</BSTAR><MEAN_MOTION_DOT>.3585E-4</MEAN_MOTION_DOT><MEAN_MOTION_DDOT>0</MEAN_MOTION_DDOT></tleParameters></data></segment></body></omm>

</ndm>
